H1 CPF 01  gfz 2022 05 11 00  6311 tandemx   
H2 1003001  6202 36605    2022 05 11 00 59 42 2022 05 16 00 00 42   120 1 1  0 0 0
H9
10 0 59714  55422.000000  0    2321931.180    822513.481   6422149.981
10 0 59714  55542.000000  0    1666369.925    225222.978   6669113.420
10 0 59714  55662.000000  0     971346.854   -364180.734   6798868.292
10 0 59714  55782.000000  0     249226.244   -934829.559   6809150.589
10 0 59714  55902.000000  0    -486973.717  -1476405.763   6699782.743
10 0 59714  56022.000000  0   -1223815.535  -1979328.366   6472675.814
10 0 59714  56142.000000  0   -1947686.502  -2434922.511   6131796.481
10 0 59714  56262.000000  0   -2645047.771  -2835568.932   5683102.764
10 0 59714  56382.000000  0   -3302689.001  -3174834.540   5134448.539
10 0 59714  56502.000000  0   -3907983.884  -3447579.507   4495451.318
10 0 59714  56622.000000  0   -4449136.929  -3650037.535   3777327.031
10 0 59714  56742.000000  0   -4915418.319  -3779868.799   2992696.166
10 0 59714  56862.000000  0   -5297382.692  -3836184.753   2155363.578
10 0 59714  56982.000000  0   -5587066.960  -3819544.031   1280072.953
10 0 59714  57102.000000  0   -5778160.028  -3731917.446    382241.200
10 0 59714  57222.000000  0   -5866141.025  -3576623.705   -522320.561
10 0 59714  57342.000000  0   -5848382.334  -3358237.789  -1417694.633
10 0 59714  57462.000000  0   -5724213.264  -3082472.999  -2288146.949
10 0 59714  57582.000000  0   -5494943.017  -2756040.648  -3118410.232
10 0 59714  57702.000000  0   -5163844.718  -2386492.291  -3893955.658
10 0 59714  57822.000000  0   -4736100.760  -1982047.849  -4601247.336
10 0 59714  57942.000000  0   -4218711.934  -1551414.812  -5227975.398
10 0 59714  58062.000000  0   -3620372.541  -1103602.180  -5763264.002
10 0 59714  58182.000000  0   -2951315.104   -647733.494  -6197850.170
10 0 59714  58302.000000  0   -2223129.198   -192863.502  -6524232.595
10 0 59714  58422.000000  0   -1448557.189    252197.850  -6736789.488
10 0 59714  58542.000000  0    -641271.896    679050.842  -6831864.126
10 0 59714  58662.000000  0     184359.989   1079860.170  -6807820.752
10 0 59714  58782.000000  0    1013526.425   1447494.363  -6665069.480
10 0 59714  58902.000000  0    1831229.473   1775649.596  -6406062.797
10 0 59714  59022.000000  0    2622551.301   2058956.876  -6035257.913
10 0 59714  59142.000000  0    3372922.440   2293069.462  -5559047.648
10 0 59714  59262.000000  0    4068386.988   2474729.745  -4985660.488
10 0 59714  59382.000000  0    4695863.861   2601815.402  -4325030.858
10 0 59714  59502.000000  0    5243398.131   2673362.976  -3588637.133
10 0 59714  59622.000000  0    5700395.416   2689568.016  -2789310.558
10 0 59714  59742.000000  0    6057836.846   2651762.148  -1941018.549
10 0 59714  59862.000000  0    6308467.743   2562366.106  -1058621.228
10 0 59714  59982.000000  0    6446953.527   2424819.506   -157609.189
10 0 59714  60102.000000  0    6469999.864   2243488.777    746174.878
10 0 59714  60222.000000  0    6376430.661   2023554.718   1636821.551
10 0 59714  60342.000000  0    6167227.169   1770885.111   2498642.668
10 0 59714  60462.000000  0    5845521.750   1491892.151   3316457.550
10 0 59714  60582.000000  0    5416547.950   1193380.190   4075867.824
10 0 59714  60702.000000  0    4887547.406    882387.403   4763515.820
10 0 59714  60822.000000  0    4267639.166    566026.365   5367320.281
10 0 59714  60942.000000  0    3567653.009    251325.782   5876688.485
10 0 59714  61062.000000  0    2799929.828    -54921.887   6282697.629
10 0 59714  61182.000000  0    1978097.612   -346302.644   6578244.318
10 0 59714  61302.000000  0    1116825.697   -616912.118   6758163.802
10 0 59714  61422.000000  0     231559.488   -861473.523   6819315.840
10 0 59714  61542.000000  0    -661757.753  -1075439.259   6760634.871
10 0 59714  61662.000000  0   -1546971.354  -1255075.381   6583146.617
10 0 59714  61782.000000  0   -2408006.012  -1397526.690   6289950.173
10 0 59714  61902.000000  0   -3229155.723  -1500861.304   5886167.684
10 0 59714  62022.000000  0   -3995372.443  -1564095.679   5378862.800
10 0 59714  62142.000000  0   -4692547.263  -1587199.936   4776923.012
10 0 59714  62262.000000  0   -5307777.230  -1571081.733   4090908.740
10 0 59714  62382.000000  0   -5829611.921  -1517548.806   3332870.750
10 0 59714  62502.000000  0   -6248274.583  -1429251.169   2516140.459
10 0 59714  62622.000000  0   -6555855.576  -1309605.194   1655095.989
10 0 59714  62742.000000  0   -6746471.866  -1162700.340    764903.697
10 0 59714  62862.000000  0   -6816384.715   -993190.207   -138756.775
10 0 59714  62982.000000  0   -6764074.788   -806171.233  -1039977.423
10 0 59714  63102.000000  0   -6590272.183   -607052.235  -1922911.076
10 0 59714  63222.000000  0   -6297941.055   -401418.280  -2772056.928
10 0 59714  63342.000000  0   -5892221.530   -194893.257  -3572538.589
10 0 59714  63462.000000  0   -5380327.085      6997.492  -4310368.252
10 0 59714  63582.000000  0   -4771402.519    198959.761  -4972689.186
10 0 59714  63702.000000  0   -4076348.157    376055.355  -5547994.305
10 0 59714  63822.000000  0   -3307613.498    533815.769  -6026317.681
10 0 59714  63942.000000  0   -2478965.903    668342.474  -6399395.239
10 0 59714  64062.000000  0   -1605241.271    776392.719  -6660795.457
10 0 59714  64182.000000  0    -702078.417    855449.499  -6806019.890
10 0 59714  64302.000000  0     214356.633    903774.630  -6832570.656
10 0 59714  64422.000000  0    1127651.649    920443.650  -6739988.918
10 0 59714  64542.000000  0    2021435.465    905362.744  -6529864.674
10 0 59714  64662.000000  0    2879665.713    859267.614  -6205812.319
10 0 59714  64782.000000  0    3686912.263    783704.102  -5773414.508
10 0 59714  64902.000000  0    4428631.609    680990.075  -5240135.299
10 0 59714  65022.000000  0    5091430.287    554159.788  -4615203.315
10 0 59714  65142.000000  0    5663312.921    406891.759  -3909463.197
10 0 59714  65262.000000  0    6133907.908    243420.387  -3135196.678
10 0 59714  65382.000000  0    6494666.713     68433.740  -2305916.597
10 0 59714  65502.000000  0    6739033.075   -113041.027  -1436134.711
10 0 59714  65622.000000  0    6862574.419   -295761.698   -541106.388
10 0 59714  65742.000000  0    6863072.419   -474401.133    363440.678
10 0 59714  65862.000000  0    6740571.008   -643681.311   1261589.505
10 0 59714  65982.000000  0    6497378.574   -798507.213   2137522.400
10 0 59714  66102.000000  0    6138024.569   -934097.030   2975809.577
10 0 59714  66222.000000  0    5669169.267  -1046105.190   3761688.869
10 0 59714  66342.000000  0    5099473.548  -1130735.082   4481330.773
10 0 59714  66462.000000  0    4439429.332  -1184839.764   5122085.268
10 0 59714  66582.000000  0    3701155.926  -1206005.898   5672703.725
10 0 59714  66702.000000  0    2898168.257  -1192620.554   6123533.680
10 0 59714  66822.000000  0    2045121.647  -1143920.267   6466682.773
10 0 59714  66942.000000  0    1157539.573  -1060020.916   6696151.612
10 0 59714  67062.000000  0     251527.002   -941927.474   6807933.339
10 0 59714  67182.000000  0    -656523.166   -791523.429   6800077.991
10 0 59714  67302.000000  0   -1550225.692   -611540.944   6672723.361
10 0 59714  67422.000000  0   -2413497.207   -405511.347   6428092.498
10 0 59714  67542.000000  0   -3230844.497   -177696.946   6070457.954
10 0 59714  67662.000000  0   -3987644.006     66994.810   5606072.883
10 0 59714  67782.000000  0   -4670407.966    323113.414   5043067.888
10 0 59714  67902.000000  0   -5267031.336    584781.647   4391314.276
10 0 59714  68022.000000  0   -5767015.050    845824.463   3662255.195
10 0 59714  68142.000000  0   -6161659.484   1099907.751   2868707.172
10 0 59714  68262.000000  0   -6444225.609   1340683.935   2024635.188
10 0 59714  68382.000000  0   -6610058.877   1561940.519   1144904.109
10 0 59714  68502.000000  0   -6656673.103   1757748.645    245010.858
10 0 59714  68622.000000  0   -6583789.626   1922607.469   -659197.454
10 0 59714  68742.000000  0   -6393331.344   2051579.841  -1551811.568
10 0 59714  68862.000000  0   -6089373.236   2140416.870  -2417147.934
10 0 59714  68982.000000  0   -5678049.994   2185668.458  -3240031.994
10 0 59714  69102.000000  0   -5167422.038   2184775.920  -4006068.979
10 0 59714  69222.000000  0   -4567305.760   2136144.541  -4701895.574
10 0 59714  69342.000000  0   -3889073.274   2039195.440  -5315408.695
10 0 59714  69462.000000  0   -3145427.397   1894396.071  -5835967.550
10 0 59714  69582.000000  0   -2350157.978   1703269.113  -6254568.091
10 0 59714  69702.000000  0   -1517882.268   1468379.550  -6563988.292
10 0 59714  69822.000000  0    -663775.815   1193300.357  -6758900.143
10 0 59714  69942.000000  0     196699.910    882557.890  -6835951.055
10 0 59714  70062.000000  0    1048069.785    541558.825  -6793815.255
10 0 59714  70182.000000  0    1875117.344    176498.063  -6633216.386
10 0 59714  70302.000000  0    2663150.910   -205751.127  -6356915.514
10 0 59714  70422.000000  0    3398259.758   -597762.304  -5969669.389
10 0 59714  70542.000000  0    4067557.176   -991695.518  -5478155.949
10 0 59714  70662.000000  0    4659406.583  -1379448.971  -4890870.905
10 0 59714  70782.000000  0    5163629.355  -1752821.991  -4217992.863
10 0 59714  70902.000000  0    5571687.876  -2103684.713  -3471217.372
10 0 59714  71022.000000  0    5876840.606  -2424151.480  -2663561.930
10 0 59714  71142.000000  0    6074264.732  -2706754.437  -1809143.647
10 0 59714  71262.000000  0    6161142.403  -2944612.784   -922933.562
10 0 59714  71382.000000  0    6136708.853  -3131593.676    -20492.204
10 0 59714  71502.000000  0    6002259.734  -3262460.611    882309.094
10 0 59714  71622.000000  0    5761118.082  -3333005.503   1769575.326
10 0 59714  71742.000000  0    5418558.150  -3340159.788   2625678.102
10 0 59714  71862.000000  0    4981689.737  -3282082.214   3435538.779
99
